TIANMU-1 07             
1 57399U 23101A   26065.57454230  .00008352  00000+0  29795-3 0  9991
2 57399  97.2728 118.5929 0004609 142.4105 217.7458 15.29118809145964
STARLINK-31612          
1 59337U 24057T   26068.39396130  .00000716  00000+0  35552-4 0  9998
2 59337  43.0000 188.7578 0001722 286.8576  73.2087 15.27578998109798
